{
  "norad_id": 57841,
  "name": "STARLINK-30410",
  "history": [
    {
      "epoch": "2026-03-28T16:23:08.517408Z",
      "apogee_km": 476.0909740682291,
      "perigee_km": 474.3652967271355,
      "latitude_deg": 2.557164800823751e-05,
      "longitude_deg": 123.98335725281963,
      "height_km": 476.18369619123365,
      "semi_major_axis_km": 6853.365135397682,
      "eccentricity": 0.0001259,
      "inclination_deg": 53.1599,
      "raan_deg": 195.8685,
      "arg_perigee_deg": 93.82,
      "mean_anomaly_deg": 266.2945,
      "mean_motion_rev_day": 15.30195624
    },
    {
      "epoch": "2026-03-29T00:13:25.165920Z",
      "apogee_km": 476.4543849254078,
      "perigee_km": 474.0721429936548,
      "latitude_deg": -6.966637122805137e-05,
      "longitude_deg": 4.576523884290241,
      "height_km": 476.1493834287909,
      "semi_major_axis_km": 6853.400263959531,
      "eccentricity": 0.0001738,
      "inclination_deg": 53.1603,
      "raan_deg": 194.353,
      "arg_perigee_deg": 89.4547,
      "mean_anomaly_deg": 270.6652,
      "mean_motion_rev_day": 15.30183859
    },
    {
      "epoch": "2026-03-29T23:44:13.093152Z",
      "apogee_km": 476.0128094713882,
      "perigee_km": 474.5091739520067,
      "latitude_deg": -3.245342459369386e-05,
      "longitude_deg": 6.3622978503150955,
      "height_km": 476.2561585018791,
      "semi_major_axis_km": 6853.397991711697,
      "eccentricity": 0.0001097,
      "inclination_deg": 53.1603,
      "raan_deg": 189.8041,
      "arg_perigee_deg": 97.3988,
      "mean_anomaly_deg": 262.7137,
      "mean_motion_rev_day": 15.3018462
    },
    {
      "epoch": "2026-03-29T23:44:13.094016Z",
      "apogee_km": 476.01308360730764,
      "perigee_km": 474.50889981608634,
      "latitude_deg": -3.611436510647788e-05,
      "longitude_deg": 6.36229151293491,
      "height_km": 476.2561938033609,
      "semi_major_axis_km": 6853.397991711697,
      "eccentricity": 0.00010974,
      "inclination_deg": 53.1603,
      "raan_deg": 189.8041,
      "arg_perigee_deg": 97.3988,
      "mean_anomaly_deg": 262.7137,
      "mean_motion_rev_day": 15.3018462
    },
    {
      "epoch": "2026-03-30T12:16:39.078624Z",
      "apogee_km": 476.1717629269897,
      "perigee_km": 474.35232254912444,
      "latitude_deg": 1.2541655276625628e-05,
      "longitude_deg": 175.30863701960453,
      "height_km": 476.4338865381308,
      "semi_major_axis_km": 6853.399042738057,
      "eccentricity": 0.00013274,
      "inclination_deg": 53.1601,
      "raan_deg": 187.3737,
      "arg_perigee_deg": 107.5137,
      "mean_anomaly_deg": 252.6009,
      "mean_motion_rev_day": 15.30184268
    },
    {
      "epoch": "2026-03-30T15:24:45.353376Z",
      "apogee_km": 476.1997346961789,
      "perigee_km": 474.3116250128787,
      "latitude_deg": -4.344733686988579e-05,
      "longitude_deg": 127.54669764728169,
      "height_km": 476.4523554246187,
      "semi_major_axis_km": 6853.392679854529,
      "eccentricity": 0.00013775,
      "inclination_deg": 53.1602,
      "raan_deg": 186.7667,
      "arg_perigee_deg": 108.4412,
      "mean_anomaly_deg": 251.6738,
      "mean_motion_rev_day": 15.30186399
    },
    {
      "epoch": "2026-03-31T13:21:31.167936Z",
      "apogee_km": 476.8063770285935,
      "perigee_km": 473.78154673925746,
      "latitude_deg": 1.8012347426323123e-05,
      "longitude_deg": 153.2136579914263,
      "height_km": 476.8937316268796,
      "semi_major_axis_km": 6853.430961883925,
      "eccentricity": 0.00022068,
      "inclination_deg": 53.1577,
      "raan_deg": 182.5258,
      "arg_perigee_deg": 117.6959,
      "mean_anomaly_deg": 242.4266,
      "mean_motion_rev_day": 15.30173578
    },
    {
      "epoch": "2026-04-01T12:52:17.371488Z",
      "apogee_km": 475.858938075864,
      "perigee_km": 474.573249035514,
      "latitude_deg": -6.490983486299605e-05,
      "longitude_deg": 155.00084489854618,
      "height_km": 476.1699783218588,
      "semi_major_axis_km": 6853.353093555689,
      "eccentricity": 9.38e-05,
      "inclination_deg": 53.1589,
      "raan_deg": 177.9712,
      "arg_perigee_deg": 94.9499,
      "mean_anomaly_deg": 265.1608,
      "mean_motion_rev_day": 15.30199657
    },
    {
      "epoch": "2026-04-02T09:14:59.816256Z",
      "apogee_km": 476.0740158931603,
      "perigee_km": 474.40919316254895,
      "latitude_deg": 1.1697761420458348e-05,
      "longitude_deg": -155.45576386826457,
      "height_km": 476.1601671363758,
      "semi_major_axis_km": 6853.378604527855,
      "eccentricity": 0.00012146,
      "inclination_deg": 53.1594,
      "raan_deg": 174.0283,
      "arg_perigee_deg": 91.4099,
      "mean_anomaly_deg": 268.7041,
      "mean_motion_rev_day": 15.30191113
    },
    {
      "epoch": "2026-04-03T11:53:55.277952Z",
      "apogee_km": 476.1579750442943,
      "perigee_km": 474.463665674145,
      "latitude_deg": 9.938150818575035e-06,
      "longitude_deg": 158.5566199760238,
      "height_km": 475.87636229502823,
      "semi_major_axis_km": 6853.44782035922,
      "eccentricity": 0.00012361,
      "inclination_deg": 53.1584,
      "raan_deg": 168.8662,
      "arg_perigee_deg": 66.8879,
      "mean_anomaly_deg": 293.2252,
      "mean_motion_rev_day": 15.30167932
    },
    {
      "epoch": "2026-04-04T11:24:41.490144Z",
      "apogee_km": 476.1042449604638,
      "perigee_km": 474.35677331298484,
      "latitude_deg": -1.0282091867694115e-06,
      "longitude_deg": 160.35152262369138,
      "height_km": 476.220118412062,
      "semi_major_axis_km": 6853.367509136724,
      "eccentricity": 0.00012749,
      "inclination_deg": 53.1588,
      "raan_deg": 164.3193,
      "arg_perigee_deg": 96.022,
      "mean_anomaly_deg": 264.0926,
      "mean_motion_rev_day": 15.30194829
    },
    {
      "epoch": "2026-04-05T14:03:36.086112Z",
      "apogee_km": 476.12681636031266,
      "perigee_km": 474.4244286648809,
      "latitude_deg": -4.391131489642902e-05,
      "longitude_deg": 114.36879096426112,
      "height_km": 475.9211509613632,
      "semi_major_axis_km": 6853.4126225125965,
      "eccentricity": 0.0001242,
      "inclination_deg": 53.1589,
      "raan_deg": 159.1585,
      "arg_perigee_deg": 72.7407,
      "mean_anomaly_deg": 287.3729,
      "mean_motion_rev_day": 15.3017972
    },
    {
      "epoch": "2026-04-07T09:57:05.088672Z",
      "apogee_km": 476.0316575687966,
      "perigee_km": 474.3895954774807,
      "latitude_deg": 5.281433384385599e-06,
      "longitude_deg": 165.70312385765132,
      "height_km": 476.0871072848021,
      "semi_major_axis_km": 6853.347626523138,
      "eccentricity": 0.0001198,
      "inclination_deg": 53.1589,
      "raan_deg": 150.6662,
      "arg_perigee_deg": 88.4942,
      "mean_anomaly_deg": 271.6196,
      "mean_motion_rev_day": 15.30201488
    },
    {
      "epoch": "2026-04-08T12:35:59.865216Z",
      "apogee_km": 476.11580870349553,
      "perigee_km": 474.3939625261537,
      "latitude_deg": -2.3986750382073468e-05,
      "longitude_deg": 119.72374609313825,
      "height_km": 476.03607880835887,
      "semi_major_axis_km": 6853.391885614825,
      "eccentricity": 0.00012562,
      "inclination_deg": 53.1598,
      "raan_deg": 145.5095,
      "arg_perigee_deg": 82.1963,
      "mean_anomaly_deg": 277.918,
      "mean_motion_rev_day": 15.30186665
    },
    {
      "epoch": "2026-04-09T10:32:44.432160Z",
      "apogee_km": 476.1131698940335,
      "perigee_km": 474.37583768282457,
      "latitude_deg": 3.530542066755528e-05,
      "longitude_deg": 145.3902135151897,
      "height_km": 475.8703209462324,
      "semi_major_axis_km": 6853.381503788429,
      "eccentricity": 0.00012675,
      "inclination_deg": 53.1593,
      "raan_deg": 141.2629,
      "arg_perigee_deg": 71.7337,
      "mean_anomaly_deg": 288.3802,
      "mean_motion_rev_day": 15.30190142
    },
    {
      "epoch": "2026-04-11T18:58:41.001312Z",
      "apogee_km": 476.2752582034873,
      "perigee_km": 474.3110651191555,
      "latitude_deg": -2.749684620990914e-05,
      "longitude_deg": 5.662561169165031,
      "height_km": 476.0571300105266,
      "semi_major_axis_km": 6853.430161661321,
      "eccentricity": 0.0001433,
      "inclination_deg": 53.1592,
      "raan_deg": 130.3386,
      "arg_perigee_deg": 82.1691,
      "mean_anomaly_deg": 277.9472,
      "mean_motion_rev_day": 15.30173846
    },
    {
      "epoch": "2026-04-13T05:27:51.414624Z",
      "apogee_km": 476.095686320461,
      "perigee_km": 474.43579217701426,
      "latitude_deg": -1.2700974027230534e-05,
      "longitude_deg": -159.72291628103443,
      "height_km": 476.0511482939413,
      "semi_major_axis_km": 6853.402739248737,
      "eccentricity": 0.0001211,
      "inclination_deg": 53.1591,
      "raan_deg": 123.6628,
      "arg_perigee_deg": 82.1982,
      "mean_anomaly_deg": 277.9156,
      "mean_motion_rev_day": 15.3018303
    },
    {
      "epoch": "2026-04-14T17:31:04.353600Z",
      "apogee_km": 476.2405580571085,
      "perigee_km": 474.2119625320611,
      "latitude_deg": -3.1390702764227663e-06,
      "longitude_deg": 11.01541150066162,
      "height_km": 475.83181975167815,
      "semi_major_axis_km": 6853.3632602945845,
      "eccentricity": 0.000148,
      "inclination_deg": 53.1597,
      "raan_deg": 116.6857,
      "arg_perigee_deg": 73.2519,
      "mean_anomaly_deg": 286.8644,
      "mean_motion_rev_day": 15.30196252
    },
    {
      "epoch": "2026-04-15T17:01:51.466080Z",
      "apogee_km": 476.16194872486267,
      "perigee_km": 474.23204987065947,
      "latitude_deg": -1.8831846953804395e-05,
      "longitude_deg": 12.803051474166477,
      "height_km": 475.8188245291152,
      "semi_major_axis_km": 6853.333999297761,
      "eccentricity": 0.0001408,
      "inclination_deg": 53.1583,
      "raan_deg": 112.1353,
      "arg_perigee_deg": 73.3818,
      "mean_anomaly_deg": 286.7337,
      "mean_motion_rev_day": 15.30206052
    }
  ]
}